BEIDOU 3 (C01)          
1 36287U 10001A   21277.57826896 -.00000281  00000-0  00000-0 0  9990
2 36287   1.6645  40.9382 0002625  80.2040 240.9730  1.00274268 42949
BEIDOU 5 (C06)          
1 36828U 10036A   21277.90271013 -.00000136  00000-0  00000+0 0  9999
2 36828  54.1817 178.5835 0023228 180.9587  86.4948  1.00271881 41010
BEIDOU 6 (C04)          
1 37210U 10057A   21277.64320248 -.00000114  00000-0  00000-0 0  9991
2 37210   0.7327  37.1518 0004391 144.5150 223.3646  1.00273754 40072
BEIDOU 7 (C07)          
1 37256U 10068A   21277.64700456 -.00000168  00000-0  00000-0 0  9995
2 37256  50.6683 292.7036 0018115 189.0039 233.7251  1.00274606 39582
BEIDOU 8 (C08)          
1 37384U 11013A   21277.85873949 -.00000156  00000-0  00000+0 0  9995
2 37384  59.9314  56.8031 0019056 180.7506 191.6698  1.00277340 38464
BEIDOU 9 (C09)          
1 37763U 11038A   21277.90071127 -.00000092  00000-0  00000+0 0  9996
2 37763  54.4695 181.0444 0086570 226.7856  24.2834  1.00287499 37435
BEIDOU 10 (C10)         
1 37948U 11073A   21277.38433647 -.00000119  00000-0  00000-0 0  9992
2 37948  50.7749 292.3327 0079019 217.5095  97.8472  1.00268519 36185
BEIDOU 11 (C05)         
1 38091U 12008A   21277.86960802  .00000056  00000-0  00000+0 0  9990
2 38091   1.7860  70.1849 0002972 321.6226 353.7233  1.00272569 35260
BEIDOU 12 (C11)         
1 38250U 12018A   21277.50923618 -.00000078  00000-0  00000-0 0  9999
2 38250  56.7453   2.0144 0023147 244.8369  86.3930  1.86234389 64311
BEIDOU 13 (C12)         
1 38251U 12018B   21277.43752105 -.00000078  00000-0  00000+0 0  9992
2 38251  56.6671   1.3592 0014072 243.9289  83.5534  1.86234105 64315
BEIDOU 15 (C14)         
1 38775U 12050B   21277.44147450  .00000078  00000-0  00000-0 0  9991
2 38775  55.2583 120.3090 0012525 328.7212 198.6560  1.86231308 61694
BEIDOU 16 (C02)         
1 38953U 12059A   21277.60789640 -.00000178  00000-0  00000-0 0  9991
2 38953   1.3553  84.1352 0009256 282.3332 310.0007  1.00273915 32830
BEIDOU 17 (C31)         
1 40549U 15019A   21277.58938030 -.00000127  00000-0  00000-0 0  9994
2 40549  52.3148 315.7298 0038312 189.3585 172.8721  1.00297632 23876
BEIDOU 18 (C57)         
1 40748U 15037A   21277.59565623 -.00000078  00000-0  00000-0 0  9995
2 40748  55.9254   0.3757 0001253  36.3214 306.9678  1.86233486 42148
BEIDOU 19 (C58)         
1 40749U 15037B   21277.55787603 -.00000078  00000-0  00000+0 0  9995
2 40749  55.9287   0.3642 0003205 290.2297 163.3366  1.86232138 42141
BEIDOU 20 (C18)         
1 40938U 15053A   21277.46264833 -.00000096  00000-0  00000+0 0  9998
2 40938  51.9003 278.8121 0047988 196.2762 159.3784  1.00258825 22138
BEIDOU IGSO-6 (C13)     
1 41434U 16021A   21277.55193426 -.00000126  00000-0  00000-0 0  9990
2 41434  57.7255  55.5012 0043308 210.5235  39.9479  1.00291492 20262
BEIDOU-2 G7 (C03)       
1 41586U 16037A   21277.54118059 -.00000355  00000-0  00000-0 0  9997
2 41586   1.9305  69.1608 0007464  12.4757 237.1516  1.00267139 19577
BEIDOU-3 M1 (C19)       
1 43001U 17069A   21277.50728850  .00000078  00000-0  00000-0 0  9990
2 43001  55.4120 120.2730 0007842 294.8910  72.6413  1.86231776 26637
BEIDOU-3 M2 (C20)       
1 43002U 17069B   21277.36484394  .00000078  00000-0  00000-0 0  9997
2 43002  55.4112 120.3135 0006701 323.3759 351.9643  1.86231385 26613
BEIDOU-3 M3 (C27)       
1 43107U 18003A   21277.61841199 -.00000079  00000-0  00000-0 0  9992
2 43107  55.3707   1.4054 0003888  64.2737 227.0011  1.86232568 25386
BEIDOU-3 M4 (C28)       
1 43108U 18003B   21277.09124213 -.00000080  00000-0  00000-0 0  9998
2 43108  55.3649   1.4123 0003723 229.1879 113.8273  1.86232632 25379
BEIDOU-3 M5 (C21)       
1 43207U 18018A   21276.48996604  .00000074  00000-0  00000-0 0  9999
2 43207  55.3707 120.4300 0005089 357.9330   2.1625  1.86231777 24753
BEIDOU-3 M6 (C22)       
1 43208U 18018B   21277.09364811  .00000077  00000-0  00000-0 0  9990
2 43208  55.3704 120.4146 0005830 311.3047  48.7438  1.86231799 24765
BEIDOU-3 M7 (C29)       
1 43245U 18029A   21277.36719455 -.00000078  00000-0  00000-0 0  9993
2 43245  55.2971 359.2000 0001088 199.6034 193.5114  1.86232914 23923
BEIDOU-3 M8 (C30)       
1 43246U 18029B   21277.29235209 -.00000078  00000-0  10000-3 0  9990
2 43246  55.2937 359.2320 0002924 343.0708  46.1658  1.86233273 23918
BEIDOU IGSO-7 (C16)     
1 43539U 18057A   21277.90467090 -.00000142  00000-0  00000+0 0  9996
2 43539  55.0620 177.9783 0041145 224.0664  49.7800  1.00288579 11948
BEIDOU-3 M9 (C23)       
1 43581U 18062A   21277.28916955  .00000011  00000-0  00000-0 0  9994
2 43581  54.3632 240.8623 0006043 275.3938 322.0177  1.86231873 21656
BEIDOU-3 M10 (C24)      
1 43582U 18062B   21277.63288816  .00000010  00000-0  00000+0 0  9990
2 43582  54.3628 240.8402 0005588 333.5075 225.8123  1.86232288 21662
BEIDOU-3 M11 (C25)      
1 43602U 18067A   21277.53817943  .00000010  00000-0  00000-0 0  9997
2 43602  54.4407 239.4357 0006987 352.4143 185.4013  1.86231565 21154
BEIDOU-3 M12 (C26)      
1 43603U 18067B   21277.52258569  .00000010  00000-0  00000-0 0  9990
2 43603  54.4375 239.4033 0004547 336.9769 100.8248  1.86231634 21171
BEIDOU-3 M13 (C32)      
1 43622U 18072A   21277.29059105  .00000078  00000-0  00000-0 0  9990
2 43622  55.3366 119.9665 0004498 291.5305  20.7175  1.86231885 20673
BEIDOU-3 M14 (C33)      
1 43623U 18072B   21277.76956742  .00000079  00000-0  00000+0 0  9996
2 43623  55.3388 119.9422 0003330 335.0312  28.5814  1.86231889 20697
BEIDOU-3 M15 (C34)      
1 43647U 18078A   21277.37588081 -.00000078  00000-0  10000-3 0  9997
2 43647  55.1908 359.3796 0005155 353.8841   1.0097  1.86233099 20183
BEIDOU-3 M16 (C35)      
1 43648U 18078B   21277.41947764 -.00000078  00000-0  00000+0 0  9995
2 43648  55.1867 359.3842 0003112  13.3276 279.0559  1.86232358 20201
BEIDOU-3 G1 (C59)       
1 43683U 18085A   21277.61405668 -.00000282  00000-0  00000-0 0  9994
2 43683   0.9145 212.3659 0004789  30.1446 132.0837  1.00268334 10843
BEIDOU-3 M17 (C36)      
1 43706U 18093A   21277.40353994  .00000011  00000-0  00000+0 0  9998
2 43706  54.4438 240.7248 0011484 272.7284 266.2705  1.86231860 19550
BEIDOU-3 M18 (C37)      
1 43707U 18093B   21277.36311299  .00000011  00000-0  00000-0 0  9997
2 43707  54.4449 240.7170 0009979 293.5092 309.3470  1.86232194 19550
BEIDOU-3 IGSO-1 (C38)   
1 44204U 19023A   21277.79077351 -.00000192  00000-0  00000+0 0  9999
2 44204  56.1838  55.7319 0022705 185.3354 175.6047  1.00288460  9156
BEIDOU-2 G8             
1 44231U 19027A   21277.83105620 -.00000249  00000-0  00000+0 0  9992
2 44231   0.3165  39.3307 0007306 163.9796 254.1358  1.00269209  8862
BEIDOU-3 IGSO-2 (C39)   
1 44337U 19035A   21277.61091917 -.00000142  00000-0  00000-0 0  9990
2 44337  55.0966 174.0136 0020176 181.5923 357.3255  1.00279299  8480
BEIDOU-3 M23 (C45)      
1 44542U 19061A   21277.21321463  .00000012  00000-0  10000-3 0  9994
2 44542  54.6696 240.8228 0009244 320.8455 134.1929  1.86231548 13819
BEIDOU-3 M24 (C46)      
1 44543U 19061B   21277.46640789  .00000012  00000-0  57115+1 0  9992
2 44543  54.6683 240.7849 0006884 308.2012 227.5877  1.86231996 13816
BEIDOU-3 IGSO-3         
1 44709U 19073A   21277.64887609 -.00000137  00000-0  00000-0 0  9993
2 44709  57.6719 299.0349 0020391 185.3547 242.4396  1.00284176  7247
BEIDOU-3 M21            
1 44793U 19078A   21277.44331059 -.00000077  00000-0  88139+1 0  9994
2 44793  55.0404 359.4294 0005005   3.2288 351.1661  1.86232626 12671
BEIDOU-3 M22            
1 44794U 19078B   21276.48696051 -.00000081  00000-0  00000+0 0  9999
2 44794  55.0140 359.4599 0002986 357.0563 347.3338  1.86233134 12659
BEIDOU-3 M19            
1 44864U 19090A   21277.22914522  .00000077  00000-0  00000-0 0  9995
2 44864  55.2714 120.1940 0014520 266.4697  50.1110  1.86231963 12258
BEIDOU-3 M20            
1 44865U 19090B   21277.51712737  .00000078  00000-0  00000-0 0  9993
2 44865  55.2742 120.2146 0012960 283.3641 316.2002  1.86231931 12231
BEIDOU-3 G2             
1 45344U 20017A   21277.81823513 -.00000146  00000-0  00000+0 0  9991
2 45344   2.3006 340.5098 0002908 179.2969 228.5326  1.00272403  6063
BEIDOU-3 G3             
1 45807U 20040A   21277.60900037 -.00000360  00000-0  00000-0 0  9994
2 45807   2.0353 299.0379 0010322 336.9314  67.3602  1.00270524  4879
